NORAD_CAT_ID,OBJECT_NAME,OBJECT_TYPE,EPOCH,MEAN_MOTION,ECCENTRICITY,INCLINATION,RA_OF_ASC_NODE,ARG_OF_PERICENTER,MEAN_ANOMALY,BSTAR,MEAN_MOTION_DOT,MEAN_MOTION_DDOT,TLE_LINE0,TLE_LINE1,TLE_LINE2,SEMIMAJOR_AXIS,PERIOD,APOGEE,PERIGEE,DECAYED
51794.0,STARLINK-3573,PAYLOAD,2022-11-13 10:24:53,15.08857499,0.000206,53.2167,31.1541,35.7632,324.3498,0.00065193,0.00010108,0.0,0 STARLINK-3573,1 51794U 22017AC  22317.43395799  .00010108  00000-0  65193-3 0  9999,2 51794  53.2167  31.1541 0002060  35.7632 324.3498 15.08857499 40914,6917.8269999999975,95.436,541.117,538.2669999999998,0.0
51794.0,STARLINK-3573,PAYLOAD,2022-11-13 12:00:17,15.08835728,0.0002383,53.2169,30.8572,31.6773,328.4362,-1.6778e-05,-5.55e-06,0.0,0 STARLINK-3573,1 51794U 22017AC  22317.50019865 -.00000555  00000-0 -16778-4 0  9997,2 51794  53.2169  30.8572 0002383  31.6773 328.4362 15.08835728 40922,6917.893,95.438,541.4069999999998,538.11,0.0
51794.0,STARLINK-3573,PAYLOAD,2022-11-14 11:51:04,15.08843306,0.0002417,53.2165,26.3967,34.5878,325.5271,0.00045525,6.965e-05,0.0,0 STARLINK-3573,1 51794U 22017AC  22318.49380699  .00006965  00000-0  45525-3 0  9992,2 51794  53.2165  26.3967 0002417  34.5878 325.5271 15.08843306 41077,6917.87,95.437,541.4069999999998,538.063,0.0
51794.0,STARLINK-3573,PAYLOAD,2022-11-14 21:23:23,15.08850291,0.0002495,53.2166,24.6124,35.1624,324.9532,0.00073064,0.00011363,0.0,0 STARLINK-3573,1 51794U 22017AC  22318.89124629  .00011363  00000-0  73064-3 0  9992,2 51794  53.2166  24.6124 0002495  35.1624 324.9532 15.08850291 41137,6917.849,95.437,541.44,537.988,0.0
51794.0,STARLINK-3573,PAYLOAD,2022-11-15 10:06:28,15.08845249,0.0002357,53.2168,22.233,26.7816,333.3297,0.00018291,2.624e-05,0.0,0 STARLINK-3573,1 51794U 22017AC  22319.42116543  .00002624  00000-0  18291-3 0  9999,2 51794  53.2168  22.2330 0002357  26.7816 333.3297 15.08845249 41216,6917.864000000001,95.437,541.36,538.099,0.0
51794.0,STARLINK-3573,PAYLOAD,2022-11-15 13:17:14,15.08835027,0.0002706,53.2166,21.6381,29.9253,330.1893,-0.00015846,-2.809e-05,0.0,0 STARLINK-3573,1 51794U 22017AC  22319.55364172 -.00002809  00000-0 -15846-3 0  9996,2 51794  53.2166  21.6381 0002706  29.9253 330.1893 15.08835027 41233,6917.896,95.438,541.633,537.889,0.0
51794.0,STARLINK-3573,PAYLOAD,2022-11-15 22:49:34,15.08837096,0.000229,53.2158,19.8534,31.2781,328.8347,2.2574e-05,7.1e-07,0.0,0 STARLINK-3573,1 51794U 22017AC  22319.95108875  .00000071  00000-0  22574-4 0  9990,2 51794  53.2158  19.8534 0002290  31.2781 328.8347 15.08837096 41295,6917.889,95.438,541.3380000000002,538.17,0.0
51794.0,STARLINK-3573,PAYLOAD,2022-11-16 13:08:02,15.08832523,0.0002578,53.2167,17.1792,33.8531,326.2625,9.6105e-05,1.241e-05,0.0,0 STARLINK-3573,1 51794U 22017AC  22320.54725150  .00001241  00000-0  96105-4 0  9999,2 51794  53.2167  17.1792 0002578  33.8531 326.2625 15.08832523 41383,6917.903,95.438,541.552,537.985,0.0
51794.0,STARLINK-3573,PAYLOAD,2022-11-17 12:58:49,15.08842401,0.0003201,53.2162,12.7222,27.5384,332.5778,0.00024598,3.629e-05,0.0,0 STARLINK-3573,1 51794U 22017AC  22321.54085523  .00003629  00000-0  24598-3 0  9991,2 51794  53.2162  12.7222 0003201  27.5384 332.5778 15.08842401 41539,6917.873000000001,95.437,541.952,537.524,0.0
51794.0,STARLINK-3573,PAYLOAD,2022-11-18 09:38:50,15.08850401,0.0002553,53.2171,8.8534,34.6356,325.4802,0.00029343,4.386e-05,0.0,0 STARLINK-3573,1 51794U 22017AC  22322.40197008  .00004386  00000-0  29343-3 0  9993,2 51794  53.2171   8.8534 0002553  34.6356 325.4802 15.08850401 41660,6917.849,95.437,541.48,537.947,0.0
51794.0,STARLINK-3573,PAYLOAD,2022-11-18 20:46:32,15.08840751,0.0002482,53.2166,6.7707,36.8057,323.3105,9.1714e-05,1.172e-05,0.0,0 STARLINK-3573,1 51794U 22017AC  22322.86565407  .00001172  00000-0  91714-4 0  9997,2 51794  53.2166   6.7707 0002482  36.8057 323.3105 15.08840751 41734,6917.878000000002,95.438,541.46,538.026,0.0
51794.0,STARLINK-3573,PAYLOAD,2022-11-19 03:08:04,15.08848684,0.0002756,53.2163,5.5823,36.2071,323.9107,0.00017897,2.562e-05,0.0,0 STARLINK-3573,1 51794U 22017AC  22323.13061111  .00002562  00000-0  17897-3 0  9994,2 51794  53.2163   5.5823 0002756  36.2071 323.9107 15.08848684 41776,6917.854,95.437,541.625,537.812,0.0
51794.0,STARLINK-3573,PAYLOAD,2022-11-19 12:40:23,15.08844184,0.0002659,53.2163,3.7988,37.1313,322.9863,0.00014437,2.01e-05,0.0,0 STARLINK-3573,1 51794U 22017AC  22323.52805296  .00002010  00000-0  14437-3 0  9992,2 51794  53.2163   3.7988 0002659  37.1313 322.9863 15.08844184 41835,6917.868,95.437,541.572,537.893,0.0
51794.0,STARLINK-3573,PAYLOAD,2022-11-20 10:55:47,15.08837318,0.0002535,53.217,359.6349,35.5821,324.534,-1.6479e-05,-5.51e-06,0.0,0 STARLINK-3573,1 51794U 22017AC  22324.45541530 -.00000551  00000-0 -16479-4 0  9992,2 51794  53.2170 359.6349 0002535  35.5821 324.5340 15.08837318 41970,6917.889,95.438,541.507,538.0,0.0
51794.0,STARLINK-3573,PAYLOAD,2022-11-20 12:31:10,15.08837458,0.0002549,53.2169,359.3367,36.7779,323.3387,-4.493600000000001e-05,-1.004e-05,0.0,0 STARLINK-3573,1 51794U 22017AC  22324.52165504 -.00001004  00000-0 -44936-4 0  9996,2 51794  53.2169 359.3367 0002549  36.7779 323.3387 15.08837458 41989,6917.888000000001,95.438,541.5169999999998,537.99,0.0
51794.0,STARLINK-3573,PAYLOAD,2022-11-21 02:49:38,15.0884467,0.0002509,53.2171,356.6602,35.9425,324.1736,7.3729e-05,8.85e-06,0.0,0 STARLINK-3573,1 51794U 22017AC  22325.11781073  .00000885  00000-0  73729-4 0  9993,2 51794  53.2171 356.6602 0002509  35.9425 324.1736 15.08844670 42071,6917.866,95.437,541.467,537.995,0.0
51794.0,STARLINK-3573,PAYLOAD,2022-11-21 12:21:57,15.0884151,0.0002508,53.2174,354.8761,33.8641,326.2511,2.255800000000001e-05,7.1e-07,0.0,0 STARLINK-3573,1 51794U 22017AC  22325.51525410  .00000071  00000-0  22558-4 0  9999,2 51794  53.2174 354.8761 0002508  33.8641 326.2511 15.08841510 42137,6917.876,95.437,541.476,538.006,0.0
51794.0,STARLINK-3573,PAYLOAD,2022-11-21 18:43:30,15.08838293,0.0002484,53.2173,353.6869,34.4435,325.6718,8.08e-05,9.98e-06,0.0,0 STARLINK-3573,1 51794U 22017AC  22325.78021493  .00000998  00000-0  80800-4 0  9992,2 51794  53.2173 353.6869 0002484  34.4435 325.6718 15.08838293 42173,6917.886,95.438,541.469,538.0319999999998,0.0
51794.0,STARLINK-3573,PAYLOAD,2022-11-22 02:40:25,15.08840161,0.0002449,53.2174,352.1996,33.1815,326.933,0.00015369,2.159e-05,0.0,0 STARLINK-3573,1 51794U 22017AC  22326.11141158  .00002159  00000-0  15369-3 0  9999,2 51794  53.2174 352.1996 0002449  33.1815 326.9330 15.08840161 42225,6917.88,95.438,541.439,538.0509999999998,0.0
51794.0,STARLINK-3573,PAYLOAD,2022-11-22 07:26:35,15.08843572,0.0002518,53.2173,351.3075,34.5979,325.5176,0.00017547,2.506e-05,0.0,0 STARLINK-3573,1 51794U 22017AC  22326.31013015  .00002506  00000-0  17547-3 0  9997,2 51794  53.2173 351.3075 0002518  34.5979 325.5176 15.08843572 42251,6917.869000000002,95.437,541.476,537.993,0.0
51794.0,STARLINK-3573,PAYLOAD,2022-11-23 02:31:13,15.08838181,0.0002486,53.2183,347.7398,37.8696,322.2471,-1.2078e-05,-4.81e-06,0.0,0 STARLINK-3573,1 51794U 22017AC  22327.10501792 -.00000481  00000-0 -12078-4 0  9996,2 51794  53.2183 347.7398 0002486  37.8696 322.2471 15.08838181 42370,6917.886,95.438,541.471,538.031,0.0
51794.0,STARLINK-3573,PAYLOAD,2022-11-23 08:52:46,15.08830705,0.0002585,53.217,346.55,32.4057,327.7094,-6.9261e-05,-1.39e-05,0.0,0 STARLINK-3573,1 51794U 22017AC  22327.36998494 -.00001390  00000-0 -69261-4 0  9999,2 51794  53.2170 346.5500 0002585  32.4057 327.7094 15.08830705 42410,6917.909000000002,95.438,541.562,537.986,0.0
51794.0,STARLINK-3573,PAYLOAD,2022-11-23 18:25:05,15.08830876,0.000255,53.2171,344.7655,33.1008,327.0143,1.2451e-05,-9.000000000000002e-07,0.0,0 STARLINK-3573,1 51794U 22017AC  22327.76742448 -.00000090  00000-0  12451-4 0  9993,2 51794  53.2171 344.7655 0002550  33.1008 327.0143 15.08830876 42471,6917.908,95.438,541.5369999999998,538.009,0.0
51794.0,STARLINK-3573,PAYLOAD,2022-11-24 02:22:00,15.0883797,0.0002496,53.2172,343.2786,35.5584,324.5574,-4.3181e-06,-3.57e-06,0.0,0 STARLINK-3573,1 51794U 22017AC  22328.09862136 -.00000357  00000-0 -43181-5 0  9999,2 51794  53.2172 343.2786 0002496  35.5584 324.5574 15.08837970 42523,6917.887,95.438,541.4780000000002,538.025,0.0
51794.0,STARLINK-3573,PAYLOAD,2022-11-24 08:43:33,15.08842908,0.000257,53.2173,342.0892,33.3858,326.7296,2.1018e-05,4.6e-07,0.0,0 STARLINK-3573,1 51794U 22017AC  22328.36357863  .00000046  00000-0  21018-4 0  9992,2 51794  53.2173 342.0892 0002570  33.3858 326.7296 15.08842908 42568,6917.871999999999,95.437,541.514,537.9590000000002,0.0
51794.0,STARLINK-3573,PAYLOAD,2022-11-24 18:15:51,15.08843567,0.0002549,53.2172,340.305,34.5254,325.5903,0.00012431,1.691e-05,0.0,0 STARLINK-3573,1 51794U 22017AC  22328.76101529  .00001691  00000-0  12431-3 0  9997,2 51794  53.2172 340.3050 0002549  34.5254 325.5903 15.08843567 42624,6917.869000000002,95.437,541.498,537.971,0.0
51794.0,STARLINK-3573,PAYLOAD,2022-11-25 10:09:43,15.08831893,0.0002592,53.2176,337.3314,36.8328,323.2842,0.00012566,1.712e-05,0.0,0 STARLINK-3573,1 51794U 22017AC  22329.42342437  .00001712  00000-0  12566-3 0  9999,2 51794  53.2176 337.3314 0002592  36.8328 323.2842 15.08831893 42729,6917.905,95.438,541.563,537.977,0.0
51794.0,STARLINK-3573,PAYLOAD,2022-11-25 18:06:39,15.08840903,0.0002603,53.2178,335.8446,37.7769,322.3406,0.0001694,2.409e-05,0.0,0 STARLINK-3573,1 51794U 22017AC  22329.75462017  .00002409  00000-0  16940-3 0  9996,2 51794  53.2178 335.8446 0002603  37.7769 322.3406 15.08840903 42775,6917.878000000002,95.437,541.543,537.942,0.0
51794.0,STARLINK-3573,PAYLOAD,2022-11-26 10:00:29,15.08852576,0.0002704,53.2174,332.8714,35.5544,324.5628,0.00022046,3.223e-05,0.0,0 STARLINK-3573,1 51794U 22017AC  22330.41701374  .00003223  00000-0  22046-3 0  9992,2 51794  53.2174 332.8714 0002704  35.5544 324.5628 15.08852576 42875,6917.842,95.437,541.578,537.836,0.0
